[{"OBJECT_NAME":"STARLINK-33560","OBJECT_ID":"2024-237R","EPOCH":"2026-03-09T10:32:16.245888","MEAN_MOTION":15.27609265,"ECCENTRICITY":9.98e-5,"INCLINATION":42.9963,"RA_OF_ASC_NODE":217.7655,"ARG_OF_PERICENTER":260.4585,"MEAN_ANOMALY":99.6154,"EPHEMERIS_TYPE":0,"CLASSIFICATION_TYPE":"U","NORAD_CAT_ID":62282,"ELEMENT_SET_NO":999,"REV_AT_EPOCH":7106,"BSTAR":0.0010137721,"MEAN_MOTION_DOT":0.00027765,"MEAN_MOTION_DDOT":0},{"OBJECT_NAME":"AL MUNTHER","OBJECT_ID":"2025-052AG","EPOCH":"2026-03-09T15:29:23.207136","MEAN_MOTION":15.28381521,"ECCENTRICITY":0.0008027,"INCLINATION":97.4001,"RA_OF_ASC_NODE":323.9152,"ARG_OF_PERICENTER":130.7043,"MEAN_ANOMALY":229.4895,"EPHEMERIS_TYPE":0,"CLASSIFICATION_TYPE":"U","NORAD_CAT_ID":63240,"ELEMENT_SET_NO":999,"REV_AT_EPOCH":5479,"BSTAR":0.00065015,"MEAN_MOTION_DOT":0.00017933,"MEAN_MOTION_DDOT":0}]
